NORAD_CAT_ID,OBJECT_NAME,OBJECT_TYPE,EPOCH,MEAN_MOTION,ECCENTRICITY,INCLINATION,RA_OF_ASC_NODE,ARG_OF_PERICENTER,MEAN_ANOMALY,BSTAR,MEAN_MOTION_DOT,MEAN_MOTION_DDOT,TLE_LINE0,TLE_LINE1,TLE_LINE2,SEMIMAJOR_AXIS,PERIOD,APOGEE,PERIGEE,DECAYED
52140.0,STARLINK-3682,PAYLOAD,2022-11-12 14:16:40,15.08844267,0.0001738,53.2192,114.9183,55.0663,305.0492,0.00016284,2.305e-05,0.0,0 STARLINK-3682,1 52140U 22029BE  22316.59491421  .00002305  00000-0  16284-3 0  9990,2 52140  53.2192 114.9183 0001738  55.0663 305.0492 15.08844267 37803,6917.8669999999975,95.437,540.935,538.53,0.0
52140.0,STARLINK-3682,PAYLOAD,2022-11-12 20:38:13,15.08845282,0.0001756,53.2192,113.729,53.2363,306.879,0.00015994,2.259e-05,0.0,0 STARLINK-3682,1 52140U 22029BE  22316.85987299  .00002259  00000-0  15994-3 0  9997,2 52140  53.2192 113.7290 0001756  53.2363 306.8790 15.08845282 37848,6917.864000000001,95.437,540.944,538.514,0.0
52140.0,STARLINK-3682,PAYLOAD,2022-11-13 10:56:42,15.08838667,0.0001546,53.2196,111.0519,55.7807,304.3331,-1.6693e-05,-5.54e-06,0.0,0 STARLINK-3682,1 52140U 22029BE  22317.45604324 -.00000554  00000-0 -16693-4 0  9995,2 52140  53.2196 111.0519 0001546  55.7807 304.3331 15.08838667 37937,6917.884,95.438,540.819,538.68,0.0
52140.0,STARLINK-3682,PAYLOAD,2022-11-13 17:18:14,15.08835312,0.0001649,53.2189,109.8627,49.5978,310.5158,-4.242100000000001e-05,-9.63e-06,0.0,0 STARLINK-3682,1 52140U 22029BE  22317.72100648 -.00000963  00000-0 -42421-4 0  9997,2 52140  53.2189 109.8627 0001649  49.5978 310.5158 15.08835312 37972,6917.895,95.438,540.9,538.619,0.0
52140.0,STARLINK-3682,PAYLOAD,2022-11-14 10:47:29,15.08843653,0.0001688,53.2186,106.5913,50.0004,310.1136,-5.1412e-05,-1.106e-05,0.0,0 STARLINK-3682,1 52140U 22029BE  22318.44964183 -.00001106  00000-0 -51412-4 0  9999,2 52140  53.2186 106.5913 0001688  50.0004 310.1136 15.08843653 38083,6917.869000000002,95.437,540.9019999999998,538.566,0.0
52140.0,STARLINK-3682,PAYLOAD,2022-11-14 15:33:38,15.08847347,0.0001694,53.2189,105.6996,50.3056,309.8085,-2.356e-05,-6.63e-06,0.0,0 STARLINK-3682,1 52140U 22029BE  22318.64835797 -.00000663  00000-0 -23560-4 0  9999,2 52140  53.2189 105.6996 0001694  50.3056 309.8085 15.08847347 38110,6917.858,95.437,540.895,538.5509999999998,0.0
52140.0,STARLINK-3682,PAYLOAD,2022-11-15 10:38:16,15.08829286,0.0001682,53.2194,102.1319,49.3749,310.7390000000001,4.7389e-05,4.66e-06,0.0,0 STARLINK-3682,1 52140U 22029BE  22319.44324739  .00000466  00000-0  47389-4 0  9991,2 52140  53.2194 102.1319 0001682  49.3749 310.7390 15.08829286 38236,6917.913000000001,95.438,540.942,538.615,0.0
52140.0,STARLINK-3682,PAYLOAD,2022-11-15 13:49:02,15.08832815,0.0001634,53.2192,101.5369,53.6651,306.4492,6.9223e-05,8.14e-06,0.0,0 STARLINK-3682,1 52140U 22029BE  22319.57572510  .00000814  00000-0  69223-4 0  9995,2 52140  53.2192 101.5369 0001634  53.6651 306.4492 15.08832815 38258,6917.901999999999,95.438,540.898,538.637,0.0
52140.0,STARLINK-3682,PAYLOAD,2022-11-15 16:59:48,15.08834658,0.000167,53.2196,100.9425,49.1608,310.9529,8.423e-05,1.053e-05,0.0,0 STARLINK-3682,1 52140U 22029BE  22319.70820432  .00001053  00000-0  84230-4 0  9990,2 52140  53.2196 100.9425 0001670  49.1608 310.9529 15.08834658 38270,6917.897,95.438,540.9169999999998,538.606,0.0
52140.0,STARLINK-3682,PAYLOAD,2022-11-16 08:53:40,15.08840535,0.0001710999999999,53.2198,97.9695,47.382,312.7317,-1.8822e-05,-5.88e-06,0.0,0 STARLINK-3682,1 52140U 22029BE  22320.37060646 -.00000588  00000-0 -18822-4 0  9996,2 52140  53.2198  97.9695 0001711  47.3820 312.7317 15.08840535 38375,6917.879,95.438,540.927,538.56,0.0
52140.0,STARLINK-3682,PAYLOAD,2022-11-16 16:50:36,15.08838916,0.0001763,53.22,96.4828,50.3912,309.7236,-2.3179e-05,-6.57e-06,0.0,0 STARLINK-3682,1 52140U 22029BE  22320.70180785 -.00000657  00000-0 -23179-4 0  9998,2 52140  53.2200  96.4828 0001763  50.3912 309.7236 15.08838916 38426,6917.884,95.438,540.9680000000002,538.529,0.0
52140.0,STARLINK-3682,PAYLOAD,2022-11-17 02:22:54,15.0884676,0.0001668,53.2201,94.6985,49.4563,310.6575,-3.563e-05,-8.55e-06,0.0,0 STARLINK-3682,1 52140U 22029BE  22321.09924230 -.00000855  00000-0 -35630-4 0  9997,2 52140  53.2201  94.6985 0001668  49.4563 310.6575 15.08846760 38485,6917.86,95.437,540.879,538.571,0.0
52140.0,STARLINK-3682,PAYLOAD,2022-11-17 08:44:27,15.0884068,0.0001675999999999,53.2198,93.5086,48.7781,311.3356,7.5356e-05,9.11e-06,0.0,0 STARLINK-3682,1 52140U 22029BE  22321.36420404  .00000911  00000-0  75356-4 0  9991,2 52140  53.2198  93.5086 0001676  48.7781 311.3356 15.08840680 38528,6917.878000000002,95.438,540.903,538.5840000000002,0.0
52140.0,STARLINK-3682,PAYLOAD,2022-11-17 15:06:00,15.08838285,0.00017,53.2202,92.3193,50.0382,310.0759,1.632e-05,-2.8e-07,0.0,0 STARLINK-3682,1 52140U 22029BE  22321.62916763 -.00000028  00000-0  16320-4 0  9994,2 52140  53.2202  92.3193 0001700  50.0382 310.0759 15.08838285 38566,6917.886,95.438,540.927,538.575,0.0
52140.0,STARLINK-3682,PAYLOAD,2022-11-18 02:13:41,15.08837668,0.0001584,53.2202,90.2368,50.1394,309.9737,4.3333e-05,4.02e-06,0.0,0 STARLINK-3682,1 52140U 22029BE  22322.09284705  .00000402  00000-0  43333-4 0  9999,2 52140  53.2202  90.2368 0001584  50.1394 309.9737 15.08837668 38636,6917.888000000001,95.438,540.8480000000002,538.6569999999998,0.0
52140.0,STARLINK-3682,PAYLOAD,2022-11-18 08:35:14,15.08833338,0.0001638,53.2202,89.0483,53.0273,307.0869,-5.2295000000000005e-06,-3.71e-06,0.0,0 STARLINK-3682,1 52140U 22029BE  22322.35781240 -.00000371  00000-0 -52295-5 0  9999,2 52140  53.2202  89.0483 0001638  53.0273 307.0869 15.08833338 38677,6917.901,95.438,540.899,538.633,0.0
52140.0,STARLINK-3682,PAYLOAD,2022-11-18 14:56:47,15.08834922,0.0002025,53.2207,87.8594,54.3171,305.8009,1.096e-05,-1.14e-06,0.0,0 STARLINK-3682,1 52140U 22029BE  22322.62277325 -.00000114  00000-0  10960-4 0  9999,2 52140  53.2207  87.8594 0002025  54.3171 305.8009 15.08834922 38710,6917.896,95.438,541.1619999999998,538.36,0.0
52140.0,STARLINK-3682,PAYLOAD,2022-11-18 18:07:33,15.08833732,0.000172,53.2208,87.2646,50.3058,309.8086,-5.6235000000000005e-06,-3.78e-06,0.0,0 STARLINK-3682,1 52140U 22029BE  22322.75525416 -.00000378  00000-0 -56235-5 0  9999,2 52140  53.2208  87.2646 0001720  50.3058 309.8086 15.08833732 38733,6917.9,95.438,540.9540000000002,538.575,0.0
52140.0,STARLINK-3682,PAYLOAD,2022-11-19 08:26:01,15.08839865,0.0001587,53.2215,84.5892,44.2893,315.8226,6.9708e-05,8.22e-06,0.0,0 STARLINK-3682,1 52140U 22029BE  22323.35140813  .00000822  00000-0  69708-4 0  9990,2 52140  53.2215  84.5892 0001587  44.2893 315.8226 15.08839865 38820,6917.880999999999,95.438,540.844,538.648,0.0
52140.0,STARLINK-3682,PAYLOAD,2022-11-19 14:47:33,15.08846252,0.0001647,53.2209,83.3999,44.3599,315.7525,0.00010896,1.447e-05,0.0,0 STARLINK-3682,1 52140U 22029BE  22323.61636232  .00001447  00000-0  10896-3 0  9991,2 52140  53.2209  83.3999 0001647  44.3599 315.7525 15.08846252 38862,6917.861,95.437,540.866,538.587,0.0
52140.0,STARLINK-3682,PAYLOAD,2022-11-20 11:27:34,15.08840044,0.000183,53.2216,79.5367,44.3313,315.7825,0.00012709,1.735e-05,0.0,0 STARLINK-3682,1 52140U 22029BE  22324.47748561  .00001735  00000-0  12709-3 0  9990,2 52140  53.2216  79.5367 0001830  44.3313 315.7825 15.08840044 38994,6917.88,95.438,541.011,538.479,0.0
52140.0,STARLINK-3682,PAYLOAD,2022-11-20 13:02:57,15.08838805,0.0001834,53.2215,79.2393,44.4847,315.6293,0.00011117,1.482e-05,0.0,0 STARLINK-3682,1 52140U 22029BE  22324.54372677  .00001482  00000-0  11117-3 0  9990,2 52140  53.2215  79.2393 0001834  44.4847 315.6293 15.08838805 39009,6917.884,95.438,541.018,538.48,0.0
52140.0,STARLINK-3682,PAYLOAD,2022-11-20 14:38:21,15.0883808,0.0001817,53.2199,78.9408,35.6732,324.4382,8.1503e-05,1.009e-05,0.0,0 STARLINK-3682,1 52140U 22029BE  22324.60996814  .00001009  00000-0  81503-4 0  9994,2 52140  53.2199  78.9408 0001817  35.6732 324.4382 15.08838080 39012,6917.886,95.438,541.008,538.494,0.0
52140.0,STARLINK-3682,PAYLOAD,2022-11-21 08:07:36,15.08838584,0.0001724,53.2201,75.6686,46.3845,313.7290000000001,-6.7206e-05,-1.357e-05,0.0,0 STARLINK-3682,1 52140U 22029BE  22325.33861448 -.00001357  00000-0 -67206-4 0  9991,2 52140  53.2201  75.6686 0001724  46.3845 313.7290 15.08838584 39129,6917.885,95.438,540.942,538.557,0.0
52140.0,STARLINK-3682,PAYLOAD,2022-11-21 11:18:22,15.08837644,0.0001746,53.2203,75.0734,46.1228,313.9908,-8.8159e-05,-1.691e-05,0.0,0 STARLINK-3682,1 52140U 22029BE  22325.47109585 -.00001691  00000-0 -88159-4 0  9994,2 52140  53.2203  75.0734 0001746  46.1228 313.9908 15.08837644 39142,6917.888000000001,95.438,540.96,538.545,0.0
52140.0,STARLINK-3682,PAYLOAD,2022-11-21 14:29:08,15.08836896,0.0001806,53.2201,74.4795,43.2729,316.8405,-7.3042e-05,-1.4499999999999992e-05,0.0,0 STARLINK-3682,1 52140U 22029BE  22325.60357625 -.00001450  00000-0 -73042-4 0  9997,2 52140  53.2201  74.4795 0001806  43.2729 316.8405 15.08836896 39165,6917.89,95.438,541.004,538.506,0.0
52140.0,STARLINK-3682,PAYLOAD,2022-11-22 12:44:32,15.08847294,0.0001785,53.2204,70.3163,43.4819,316.6314,2.2693e-05,7.3e-07,0.0,0 STARLINK-3682,1 52140U 22029BE  22326.53092667  .00000073  00000-0  22693-4 0  9996,2 52140  53.2204  70.3163 0001785  43.4819 316.6314 15.08847294 39307,6917.858,95.437,540.9580000000002,538.488,0.0
52140.0,STARLINK-3682,PAYLOAD,2022-11-22 14:19:55,15.08869297,0.0001684,53.2206,70.0201,47.7685,312.345,-0.00034715,-5.813e-05,0.0,0 STARLINK-3682,1 52140U 22029BE  22326.59716468 -.00005813  00000-0 -34715-3 0  9990,2 52140  53.2206  70.0201 0001684  47.7685 312.3450 15.08869297 39317,6917.791,95.436,540.821,538.491,0.0
52140.0,STARLINK-3682,PAYLOAD,2022-11-23 10:59:57,15.08826484,0.0001946,53.2205,66.1541,40.328,319.7856,2.8268e-05,1.62e-06,0.0,0 STARLINK-3682,1 52140U 22029BE  22327.45830303  .00000162  00000-0  28268-4 0  9998,2 52140  53.2205  66.1541 0001946  40.3280 319.7856 15.08826484 39446,6917.922,95.438,541.133,538.44,0.0
